SHIJIAN-6 02B (SJ-6 02B)
1 29506U 06046B   26032.96388796  .00002248  00000+0  18147-3 0  9996
2 29506  97.6988  63.0112 0013232 155.8371 204.3477 15.00810108 50450
FGRST (GLAST)           
1 33053U 08029A   26032.78291159  .00003950  00000+0  14920-3 0  9993
2 33053  25.5828  64.0701 0008662 166.8251 193.2514 15.23029322975167
SDO                     
1 36395U 10005A   26032.16617569 -.00000096  00000+0  00000+0 0  9990
2 36395  34.3643  88.4106 0000785 125.9867 234.5743  1.00276297 58708
CRYOSAT 2               
1 36508U 10013A   26032.92937279  .00000156  00000+0  37920-4 0  9994
2 36508  92.0226 244.5516 0002562  83.4943 276.6556 14.51901577838453
X-SAT                   
1 37389U 11015C   26032.93751080  .00000251  00000+0  12442-3 0  9997
2 37389  98.3363  16.5106 0014634  24.4981 335.6892 14.25156180768414
GCOM-W1 (SHIZUKU)       
1 38337U 12025A   26032.82113020  .00000696  00000+0  16450-3 0  9993
2 38337  98.2269 335.3789 0001397  80.7230 333.6512 14.57125362729322
NUSTAR                  
1 38358U 12031A   26033.00002315  .00006461  00000+0  36182-3 0  9998
2 38358   6.0266 327.0556 0009184 259.7688  82.4720 15.07188100  1302
NEOSSAT                 
1 39089U 13009D   26032.94547312  .00000204  00000+0  85173-4 0  9993
2 39089  98.4103 216.2155 0009945 291.9180  68.0949 14.35764477677335
BRITE-AUSTRIA           
1 39091U 13009F   26032.94139533  .00000236  00000+0  95100-4 0  9994
2 39091  98.3918 215.7496 0009107 285.8613  74.1570 14.36473065677638
IRIS                    
1 39197U 13033A   26032.79464365  .00001299  00000+0  15602-3 0  9993
2 39197  97.9391 232.4405 0025489  44.0163 316.3076 14.85518127680276
HISAKI (SPRINT-A)       
1 39253U 13049A   26032.83513893  .00000093  00000+0  40893-4 0  9991
2 39253  29.7180 188.1409 0136882 359.4248   0.6154 13.55527252613042
CASSIOPE                
1 39265U 13055A   26032.94100485  .00041845 -47129-6  52441-3 0  9994
2 39265  80.9149 229.8217 0326773 155.3023 206.4265 15.15636533647118
STSAT-3                 
1 39422U 13066G   26032.96990487  .00001620  00000+0  12858-3 0  9996
2 39422  97.6072   5.2933 0014343 125.4611 234.7955 15.01820237663908
SWARM B                 
1 39451U 13067A   26032.96905056  .00004104  00000+0  15142-3 0  9996
2 39451  87.7431  23.3158 0002835  98.9170 261.2399 15.27489784662593
SWARM A                 
1 39452U 13067B   26032.91677292  .00010328  00000+0  19774-3 0  9990
2 39452  87.3348 106.3976 0002834  94.2694 265.8890 15.47885769685301
SWARM C                 
1 39453U 13067C   26032.91667668  .00010533  00000+0  20167-3 0  9993
2 39453  87.3344 104.9808 0002838  93.7579 266.4005 15.47887503685264
BRITE-CA1 (TORONTO)     
1 40020U 14033L   26032.95179592  .00000953  00000+0  15151-3 0  9999
2 40020  97.9522 164.5720 0078773 350.8439   9.1327 14.72364852622319
