[{"OBJECT_NAME":"SHIJIAN-6 02B (SJ-6 02B)","OBJECT_ID":"2006-046B","EPOCH":"2026-02-01T23:07:59.919744","MEAN_MOTION":15.00810108,"ECCENTRICITY":0.00132321,"INCLINATION":97.6988,"RA_OF_ASC_NODE":63.0112,"ARG_OF_PERICENTER":155.8371,"MEAN_ANOMALY":204.3477,"EPHEMERIS_TYPE":0,"CLASSIFICATION_TYPE":"U","NORAD_CAT_ID":29506,"ELEMENT_SET_NO":999,"REV_AT_EPOCH":5045,"BSTAR":0.00018146501,"MEAN_MOTION_DOT":2.248e-5,"MEAN_MOTION_DDOT":0},{"OBJECT_NAME":"FGRST (GLAST)","OBJECT_ID":"2008-029A","EPOCH":"2026-02-01T18:47:23.561376","MEAN_MOTION":15.23029322,"ECCENTRICITY":0.00086624,"INCLINATION":25.5828,"RA_OF_ASC_NODE":64.0701,"ARG_OF_PERICENTER":166.8251,"MEAN_ANOMALY":193.2514,"EPHEMERIS_TYPE":0,"CLASSIFICATION_TYPE":"U","NORAD_CAT_ID":33053,"ELEMENT_SET_NO":999,"REV_AT_EPOCH":97516,"BSTAR":0.0001491996,"MEAN_MOTION_DOT":3.95e-5,"MEAN_MOTION_DDOT":0},{"OBJECT_NAME":"SDO","OBJECT_ID":"2010-005A","EPOCH":"2026-02-01T03:59:17.579616","MEAN_MOTION":1.00276297,"ECCENTRICITY":7.85e-5,"INCLINATION":34.3643,"RA_OF_ASC_NODE":88.4106,"ARG_OF_PERICENTER":125.9867,"MEAN_ANOMALY":234.5743,"EPHEMERIS_TYPE":0,"CLASSIFICATION_TYPE":"U","NORAD_CAT_ID":36395,"ELEMENT_SET_NO":999,"REV_AT_EPOCH":5870,"BSTAR":0,"MEAN_MOTION_DOT":-9.6e-7,"MEAN_MOTION_DDOT":0},{"OBJECT_NAME":"CRYOSAT 2","OBJECT_ID":"2010-013A","EPOCH":"2026-02-01T22:18:17.809056","MEAN_MOTION":14.51901577,"ECCENTRICITY":0.0002562,"INCLINATION":92.0226,"RA_OF_ASC_NODE":244.5516,"ARG_OF_PERICENTER":83.4943,"MEAN_ANOMALY":276.6556,"EPHEMERIS_TYPE":0,"CLASSIFICATION_TYPE":"U","NORAD_CAT_ID":36508,"ELEMENT_SET_NO":999,"REV_AT_EPOCH":83845,"BSTAR":3.7920002e-5,"MEAN_MOTION_DOT":1.56e-6,"MEAN_MOTION_DDOT":0},{"OBJECT_NAME":"X-SAT","OBJECT_ID":"2011-015C","EPOCH":"2026-02-01T22:30:00.933120","MEAN_MOTION":14.2515618,"ECCENTRICITY":0.00146348,"INCLINATION":98.3363,"RA_OF_ASC_NODE":16.5106,"ARG_OF_PERICENTER":24.4981,"MEAN_ANOMALY":335.6892,"EPHEMERIS_TYPE":0,"CLASSIFICATION_TYPE":"U","NORAD_CAT_ID":37389,"ELEMENT_SET_NO":999,"REV_AT_EPOCH":76841,"BSTAR":0.00012442469,"MEAN_MOTION_DOT":2.51e-6,"MEAN_MOTION_DDOT":0},{"OBJECT_NAME":"GCOM-W1 (SHIZUKU)","OBJECT_ID":"2012-025A","EPOCH":"2026-02-01T19:42:25.649280","MEAN_MOTION":14.57125362,"ECCENTRICITY":0.00013975,"INCLINATION":98.2269,"RA_OF_ASC_NODE":335.3789,"ARG_OF_PERICENTER":80.723,"MEAN_ANOMALY":333.6512,"EPHEMERIS_TYPE":0,"CLASSIFICATION_TYPE":"U","NORAD_CAT_ID":38337,"ELEMENT_SET_NO":999,"REV_AT_EPOCH":72932,"BSTAR":0.00016449589,"MEAN_MOTION_DOT":6.96e-6,"MEAN_MOTION_DDOT":0},{"OBJECT_NAME":"NUSTAR","OBJECT_ID":"2012-031A","EPOCH":"2026-02-02T00:00:02.000160","MEAN_MOTION":15.071881,"ECCENTRICITY":0.00091847,"INCLINATION":6.0266,"RA_OF_ASC_NODE":327.0556,"ARG_OF_PERICENTER":259.7688,"MEAN_ANOMALY":82.472,"EPHEMERIS_TYPE":0,"CLASSIFICATION_TYPE":"U","NORAD_CAT_ID":38358,"ELEMENT_SET_NO":999,"REV_AT_EPOCH":130,"BSTAR":0.00036182073,"MEAN_MOTION_DOT":6.461e-5,"MEAN_MOTION_DDOT":0},{"OBJECT_NAME":"NEOSSAT","OBJECT_ID":"2013-009D","EPOCH":"2026-02-01T22:41:28.877568","MEAN_MOTION":14.35764477,"ECCENTRICITY":0.00099454,"INCLINATION":98.4103,"RA_OF_ASC_NODE":216.2155,"ARG_OF_PERICENTER":291.918,"MEAN_ANOMALY":68.0949,"EPHEMERIS_TYPE":0,"CLASSIFICATION_TYPE":"U","NORAD_CAT_ID":39089,"ELEMENT_SET_NO":999,"REV_AT_EPOCH":67733,"BSTAR":8.5172668e-5,"MEAN_MOTION_DOT":2.04e-6,"MEAN_MOTION_DDOT":0},{"OBJECT_NAME":"BRITE-AUSTRIA","OBJECT_ID":"2013-009F","EPOCH":"2026-02-01T22:35:36.556512","MEAN_MOTION":14.36473065,"ECCENTRICITY":0.00091078,"INCLINATION":98.3918,"RA_OF_ASC_NODE":215.7496,"ARG_OF_PERICENTER":285.8613,"MEAN_ANOMALY":74.157,"EPHEMERIS_TYPE":0,"CLASSIFICATION_TYPE":"U","NORAD_CAT_ID":39091,"ELEMENT_SET_NO":999,"REV_AT_EPOCH":67763,"BSTAR":9.5100183e-5,"MEAN_MOTION_DOT":2.36e-6,"MEAN_MOTION_DDOT":0},{"OBJECT_NAME":"IRIS","OBJECT_ID":"2013-033A","EPOCH":"2026-02-01T19:04:17.211360","MEAN_MOTION":14.85518127,"ECCENTRICITY":0.00254892,"INCLINATION":97.9391,"RA_OF_ASC_NODE":232.4405,"ARG_OF_PERICENTER":44.0163,"MEAN_ANOMALY":316.3076,"EPHEMERIS_TYPE":0,"CLASSIFICATION_TYPE":"U","NORAD_CAT_ID":39197,"ELEMENT_SET_NO":999,"REV_AT_EPOCH":68027,"BSTAR":0.00015601734,"MEAN_MOTION_DOT":1.299e-5,"MEAN_MOTION_DDOT":0},{"OBJECT_NAME":"HISAKI (SPRINT-A)","OBJECT_ID":"2013-049A","EPOCH":"2026-02-01T20:02:36.003552","MEAN_MOTION":13.55527252,"ECCENTRICITY":0.01368821,"INCLINATION":29.718,"RA_OF_ASC_NODE":188.1409,"ARG_OF_PERICENTER":359.4248,"MEAN_ANOMALY":0.6154,"EPHEMERIS_TYPE":0,"CLASSIFICATION_TYPE":"U","NORAD_CAT_ID":39253,"ELEMENT_SET_NO":999,"REV_AT_EPOCH":61304,"BSTAR":4.0892923e-5,"MEAN_MOTION_DOT":9.3e-7,"MEAN_MOTION_DDOT":0},{"OBJECT_NAME":"CASSIOPE","OBJECT_ID":"2013-055A","EPOCH":"2026-02-01T22:35:02.819040","MEAN_MOTION":15.15636533,"ECCENTRICITY":0.03267737,"INCLINATION":80.9149,"RA_OF_ASC_NODE":229.8217,"ARG_OF_PERICENTER":155.3023,"MEAN_ANOMALY":206.4265,"EPHEMERIS_TYPE":0,"CLASSIFICATION_TYPE":"U","NORAD_CAT_ID":39265,"ELEMENT_SET_NO":999,"REV_AT_EPOCH":64711,"BSTAR":0.00052441051,"MEAN_MOTION_DOT":0.00041845,"MEAN_MOTION_DDOT":-4.7129e-7},{"OBJECT_NAME":"STSAT-3","OBJECT_ID":"2013-066G","EPOCH":"2026-02-01T23:16:39.780768","MEAN_MOTION":15.01820237,"ECCENTRICITY":0.00143438,"INCLINATION":97.6072,"RA_OF_ASC_NODE":5.2933,"ARG_OF_PERICENTER":125.4611,"MEAN_ANOMALY":234.7955,"EPHEMERIS_TYPE":0,"CLASSIFICATION_TYPE":"U","NORAD_CAT_ID":39422,"ELEMENT_SET_NO":999,"REV_AT_EPOCH":66390,"BSTAR":0.00012857587,"MEAN_MOTION_DOT":1.62e-5,"MEAN_MOTION_DDOT":0},{"OBJECT_NAME":"SWARM B","OBJECT_ID":"2013-067A","EPOCH":"2026-02-01T23:15:25.968384","MEAN_MOTION":15.27489784,"ECCENTRICITY":0.00028355,"INCLINATION":87.7431,"RA_OF_ASC_NODE":23.3158,"ARG_OF_PERICENTER":98.917,"MEAN_ANOMALY":261.2399,"EPHEMERIS_TYPE":0,"CLASSIFICATION_TYPE":"U","NORAD_CAT_ID":39451,"ELEMENT_SET_NO":999,"REV_AT_EPOCH":66259,"BSTAR":0.0001514231,"MEAN_MOTION_DOT":4.104e-5,"MEAN_MOTION_DDOT":0},{"OBJECT_NAME":"SWARM A","OBJECT_ID":"2013-067B","EPOCH":"2026-02-01T22:00:09.180288","MEAN_MOTION":15.47885769,"ECCENTRICITY":0.00028348,"INCLINATION":87.3348,"RA_OF_ASC_NODE":106.3976,"ARG_OF_PERICENTER":94.2694,"MEAN_ANOMALY":265.889,"EPHEMERIS_TYPE":0,"CLASSIFICATION_TYPE":"U","NORAD_CAT_ID":39452,"ELEMENT_SET_NO":999,"REV_AT_EPOCH":68530,"BSTAR":0.0001977402,"MEAN_MOTION_DOT":0.00010328,"MEAN_MOTION_DDOT":0},{"OBJECT_NAME":"SWARM C","OBJECT_ID":"2013-067C","EPOCH":"2026-02-01T22:00:00.865152","MEAN_MOTION":15.47887503,"ECCENTRICITY":0.00028381,"INCLINATION":87.3344,"RA_OF_ASC_NODE":104.9808,"ARG_OF_PERICENTER":93.7579,"MEAN_ANOMALY":266.4005,"EPHEMERIS_TYPE":0,"CLASSIFICATION_TYPE":"U","NORAD_CAT_ID":39453,"ELEMENT_SET_NO":999,"REV_AT_EPOCH":68526,"BSTAR":0.00020167496,"MEAN_MOTION_DOT":0.00010533,"MEAN_MOTION_DDOT":0},{"OBJECT_NAME":"BRITE-CA1 (TORONTO)","OBJECT_ID":"2014-033L","EPOCH":"2026-02-01T22:50:35.167488","MEAN_MOTION":14.72364852,"ECCENTRICITY":0.00787732,"INCLINATION":97.9522,"RA_OF_ASC_NODE":164.572,"ARG_OF_PERICENTER":350.8439,"MEAN_ANOMALY":9.1327,"EPHEMERIS_TYPE":0,"CLASSIFICATION_TYPE":"U","NORAD_CAT_ID":40020,"ELEMENT_SET_NO":999,"REV_AT_EPOCH":62231,"BSTAR":0.00015151275,"MEAN_MOTION_DOT":9.53e-6,"MEAN_MOTION_DDOT":0}]
